[{"OBJECT_NAME":"ONEWEB-0323","OBJECT_ID":"2021-075AH","EPOCH":"2026-02-14T21:48:44.270208","MEAN_MOTION":13.12442365,"ECCENTRICITY":0.00023336,"INCLINATION":87.8973,"RA_OF_ASC_NODE":14.9143,"ARG_OF_PERICENTER":67.8327,"MEAN_ANOMALY":292.3049,"EPHEMERIS_TYPE":0,"CLASSIFICATION_TYPE":"U","NORAD_CAT_ID":49106,"ELEMENT_SET_NO":999,"REV_AT_EPOCH":21851,"BSTAR":0.00069399099,"MEAN_MOTION_DOT":2.62e-6,"MEAN_MOTION_DDOT":0},{"OBJECT_NAME":"ONEWEB-0329","OBJECT_ID":"2021-075AJ","EPOCH":"2026-02-14T22:11:25.872000","MEAN_MOTION":13.17647645,"ECCENTRICITY":0.00020555,"INCLINATION":87.911,"RA_OF_ASC_NODE":30.1544,"ARG_OF_PERICENTER":84.1401,"MEAN_ANOMALY":275.9964,"EPHEMERIS_TYPE":0,"CLASSIFICATION_TYPE":"U","NORAD_CAT_ID":49107,"ELEMENT_SET_NO":999,"REV_AT_EPOCH":21748,"BSTAR":8.6886044e-5,"MEAN_MOTION_DOT":4.7e-7,"MEAN_MOTION_DDOT":0},{"OBJECT_NAME":"ONEWEB-0330","OBJECT_ID":"2021-075AK","EPOCH":"2026-02-14T22:12:38.920608","MEAN_MOTION":13.17647243,"ECCENTRICITY":0.00021492,"INCLINATION":87.9106,"RA_OF_ASC_NODE":30.1621,"ARG_OF_PERICENTER":90.1651,"MEAN_ANOMALY":269.9726,"EPHEMERIS_TYPE":0,"CLASSIFICATION_TYPE":"U","NORAD_CAT_ID":49108,"ELEMENT_SET_NO":999,"REV_AT_EPOCH":21752,"BSTAR":-9.7487513e-5,"MEAN_MOTION_DOT":-2.5e-7,"MEAN_MOTION_DDOT":0},{"OBJECT_NAME":"ONEWEB-0292","OBJECT_ID":"2021-083A","EPOCH":"2026-02-15T06:45:12.405312","MEAN_MOTION":13.13471059,"ECCENTRICITY":0.00019206,"INCLINATION":87.903,"RA_OF_ASC_NODE":344.4868,"ARG_OF_PERICENTER":75.4177,"MEAN_ANOMALY":284.7165,"EPHEMERIS_TYPE":0,"CLASSIFICATION_TYPE":"U","NORAD_CAT_ID":49186,"ELEMENT_SET_NO":999,"REV_AT_EPOCH":21492,"BSTAR":0.00080836342,"MEAN_MOTION_DOT":3.08e-6,"MEAN_MOTION_DDOT":0},{"OBJECT_NAME":"ONEWEB-0303","OBJECT_ID":"2021-083B","EPOCH":"2026-02-15T07:04:14.953728","MEAN_MOTION":13.18684179,"ECCENTRICITY":0.000197,"INCLINATION":87.9231,"RA_OF_ASC_NODE":359.6571,"ARG_OF_PERICENTER":76.2677,"MEAN_ANOMALY":283.8674,"EPHEMERIS_TYPE":0,"CLASSIFICATION_TYPE":"U","NORAD_CAT_ID":49187,"ELEMENT_SET_NO":999,"REV_AT_EPOCH":21391,"BSTAR":7.8560692e-5,"MEAN_MOTION_DOT":4.4e-7,"MEAN_MOTION_DDOT":0},{"OBJECT_NAME":"ONEWEB-0306","OBJECT_ID":"2021-083C","EPOCH":"2026-02-15T06:49:59.687904","MEAN_MOTION":13.18684281,"ECCENTRICITY":0.00018332,"INCLINATION":87.9235,"RA_OF_ASC_NODE":359.6426,"ARG_OF_PERICENTER":88.0822,"MEAN_ANOMALY":272.052,"EPHEMERIS_TYPE":0,"CLASSIFICATION_TYPE":"U","NORAD_CAT_ID":49188,"ELEMENT_SET_NO":999,"REV_AT_EPOCH":21395,"BSTAR":0.00016482023,"MEAN_MOTION_DOT":7.8e-7,"MEAN_MOTION_DDOT":0},{"OBJECT_NAME":"ONEWEB-0307","OBJECT_ID":"2021-083D","EPOCH":"2026-02-15T06:36:41.457312","MEAN_MOTION":13.13471272,"ECCENTRICITY":0.00018279,"INCLINATION":87.9026,"RA_OF_ASC_NODE":344.4772,"ARG_OF_PERICENTER":77.7055,"MEAN_ANOMALY":282.4279,"EPHEMERIS_TYPE":0,"CLASSIFICATION_TYPE":"U","NORAD_CAT_ID":49189,"ELEMENT_SET_NO":999,"REV_AT_EPOCH":21492,"BSTAR":0.00095122173,"MEAN_MOTION_DOT":3.6e-6,"MEAN_MOTION_DDOT":0},{"OBJECT_NAME":"ONEWEB-0320","OBJECT_ID":"2021-083E","EPOCH":"2026-02-15T07:00:40.827744","MEAN_MOTION":13.18688022,"ECCENTRICITY":0.00019056,"INCLINATION":87.9223,"RA_OF_ASC_NODE":359.6662,"ARG_OF_PERICENTER":81.4768,"MEAN_ANOMALY":278.658,"EPHEMERIS_TYPE":0,"CLASSIFICATION_TYPE":"U","NORAD_CAT_ID":49190,"ELEMENT_SET_NO":999,"REV_AT_EPOCH":21391,"BSTAR":0.00024142964,"MEAN_MOTION_DOT":1.08e-6,"MEAN_MOTION_DDOT":0},{"OBJECT_NAME":"ONEWEB-0321","OBJECT_ID":"2021-083F","EPOCH":"2026-02-15T05:34:47.225856","MEAN_MOTION":13.20770975,"ECCENTRICITY":0.00015554,"INCLINATION":87.9209,"RA_OF_ASC_NODE":298.7786,"ARG_OF_PERICENTER":91.6381,"MEAN_ANOMALY":268.4931,"EPHEMERIS_TYPE":0,"CLASSIFICATION_TYPE":"U","NORAD_CAT_ID":49191,"ELEMENT_SET_NO":999,"REV_AT_EPOCH":22073,"BSTAR":0.00015733991,"MEAN_MOTION_DOT":7.7e-7,"MEAN_MOTION_DDOT":0},{"OBJECT_NAME":"ONEWEB-0322","OBJECT_ID":"2021-083G","EPOCH":"2026-02-15T06:30:34.537248","MEAN_MOTION":13.13471902,"ECCENTRICITY":0.000144,"INCLINATION":87.903,"RA_OF_ASC_NODE":344.4824,"ARG_OF_PERICENTER":91.3129,"MEAN_ANOMALY":268.8165,"EPHEMERIS_TYPE":0,"CLASSIFICATION_TYPE":"U","NORAD_CAT_ID":49192,"ELEMENT_SET_NO":999,"REV_AT_EPOCH":21491,"BSTAR":0.0010208232,"MEAN_MOTION_DOT":3.86e-6,"MEAN_MOTION_DDOT":0},{"OBJECT_NAME":"ONEWEB-0324","OBJECT_ID":"2021-083H","EPOCH":"2026-02-15T06:40:29.879040","MEAN_MOTION":13.18684665,"ECCENTRICITY":0.00020157,"INCLINATION":87.9234,"RA_OF_ASC_NODE":359.6498,"ARG_OF_PERICENTER":83.598,"MEAN_ANOMALY":276.5381,"EPHEMERIS_TYPE":0,"CLASSIFICATION_TYPE":"U","NORAD_CAT_ID":49193,"ELEMENT_SET_NO":999,"REV_AT_EPOCH":21393,"BSTAR":0.00021161638,"MEAN_MOTION_DOT":9.6e-7,"MEAN_MOTION_DDOT":0},{"OBJECT_NAME":"ONEWEB-0325","OBJECT_ID":"2021-083J","EPOCH":"2026-02-15T06:45:14.820192","MEAN_MOTION":13.18684273,"ECCENTRICITY":0.00018146,"INCLINATION":87.9223,"RA_OF_ASC_NODE":359.6679,"ARG_OF_PERICENTER":80.2475,"MEAN_ANOMALY":279.8862,"EPHEMERIS_TYPE":0,"CLASSIFICATION_TYPE":"U","NORAD_CAT_ID":49194,"ELEMENT_SET_NO":999,"REV_AT_EPOCH":21394,"BSTAR":0.00012597131,"MEAN_MOTION_DOT":6.3e-7,"MEAN_MOTION_DDOT":0},{"OBJECT_NAME":"ONEWEB-0326","OBJECT_ID":"2021-083K","EPOCH":"2026-02-14T20:11:15.572544","MEAN_MOTION":13.18685464,"ECCENTRICITY":0.00019535,"INCLINATION":87.9235,"RA_OF_ASC_NODE":359.7429,"ARG_OF_PERICENTER":72.2856,"MEAN_ANOMALY":287.8489,"EPHEMERIS_TYPE":0,"CLASSIFICATION_TYPE":"U","NORAD_CAT_ID":49195,"ELEMENT_SET_NO":999,"REV_AT_EPOCH":21387,"BSTAR":-0.00012451393,"MEAN_MOTION_DOT":-3.6e-7,"MEAN_MOTION_DDOT":0},{"OBJECT_NAME":"ONEWEB-0327","OBJECT_ID":"2021-083L","EPOCH":"2026-02-15T07:06:26.187552","MEAN_MOTION":13.18684389,"ECCENTRICITY":0.00018609,"INCLINATION":87.9222,"RA_OF_ASC_NODE":359.6672,"ARG_OF_PERICENTER":69.5338,"MEAN_ANOMALY":290.5994,"EPHEMERIS_TYPE":0,"CLASSIFICATION_TYPE":"U","NORAD_CAT_ID":49196,"ELEMENT_SET_NO":999,"REV_AT_EPOCH":21395,"BSTAR":0.00013703036,"MEAN_MOTION_DOT":6.7e-7,"MEAN_MOTION_DDOT":0},{"OBJECT_NAME":"ONEWEB-0328","OBJECT_ID":"2021-083M","EPOCH":"2026-02-15T06:15:57.143520","MEAN_MOTION":13.13472503,"ECCENTRICITY":0.00019632,"INCLINATION":87.9047,"RA_OF_ASC_NODE":344.4407,"ARG_OF_PERICENTER":80.3896,"MEAN_ANOMALY":279.7455,"EPHEMERIS_TYPE":0,"CLASSIFICATION_TYPE":"U","NORAD_CAT_ID":49197,"ELEMENT_SET_NO":999,"REV_AT_EPOCH":21489,"BSTAR":0.00055686548,"MEAN_MOTION_DOT":2.16e-6,"MEAN_MOTION_DDOT":0},{"OBJECT_NAME":"ONEWEB-0331","OBJECT_ID":"2021-083N","EPOCH":"2026-02-14T20:01:33.064608","MEAN_MOTION":13.18684479,"ECCENTRICITY":0.00021217,"INCLINATION":87.9233,"RA_OF_ASC_NODE":359.7371,"ARG_OF_PERICENTER":75.0165,"MEAN_ANOMALY":285.1202,"EPHEMERIS_TYPE":0,"CLASSIFICATION_TYPE":"U","NORAD_CAT_ID":49198,"ELEMENT_SET_NO":999,"REV_AT_EPOCH":21388,"BSTAR":-0.00029737269,"MEAN_MOTION_DOT":-1.04e-6,"MEAN_MOTION_DDOT":0}]
