ONEWEB-0323             
1 49106U 21075AH  26045.90884572  .00000262  00000+0  69399-3 0  9993
2 49106  87.8973  14.9143 0002333  67.8327 292.3049 13.12442365218517
ONEWEB-0329             
1 49107U 21075AJ  26045.92460500  .00000047  00000+0  86886-4 0  9999
2 49107  87.9110  30.1544 0002055  84.1401 275.9964 13.17647645217484
ONEWEB-0330             
1 49108U 21075AK  26045.92545047 -.00000025  00000+0 -97488-4 0  9998
2 49108  87.9106  30.1621 0002149  90.1651 269.9726 13.17647243217522
ONEWEB-0292             
1 49186U 21083A   26046.28139358  .00000308  00000+0  80836-3 0  9997
2 49186  87.9030 344.4868 0001920  75.4177 284.7165 13.13471059214922
ONEWEB-0303             
1 49187U 21083B   26046.29461752  .00000044  00000+0  78561-4 0  9995
2 49187  87.9231 359.6571 0001970  76.2677 283.8674 13.18684179213911
ONEWEB-0306             
1 49188U 21083C   26046.28471861  .00000078  00000+0  16482-3 0  9997
2 49188  87.9235 359.6426 0001833  88.0822 272.0520 13.18684281213954
ONEWEB-0307             
1 49189U 21083D   26046.27547983  .00000360  00000+0  95122-3 0  9998
2 49189  87.9026 344.4772 0001827  77.7055 282.4279 13.13471272214928
ONEWEB-0320             
1 49190U 21083E   26046.29213921  .00000108  00000+0  24143-3 0  9999
2 49190  87.9223 359.6662 0001905  81.4768 278.6580 13.18688022213913
ONEWEB-0321             
1 49191U 21083F   26046.23249104  .00000077  00000+0  15734-3 0  9997
2 49191  87.9209 298.7786 0001555  91.6381 268.4931 13.20770975220730
ONEWEB-0322             
1 49192U 21083G   26046.27123307  .00000386  00000+0  10208-2 0  9991
2 49192  87.9030 344.4824 0001440  91.3129 268.8165 13.13471902214911
ONEWEB-0324             
1 49193U 21083H   26046.27812360  .00000096  00000+0  21162-3 0  9996
2 49193  87.9234 359.6498 0002015  83.5980 276.5381 13.18684665213934
ONEWEB-0325             
1 49194U 21083J   26046.28142153  .00000063  00000+0  12597-3 0  9990
2 49194  87.9223 359.6679 0001814  80.2475 279.8862 13.18684273213949
ONEWEB-0326             
1 49195U 21083K   26045.84115246 -.00000036  00000+0 -12451-3 0  9996
2 49195  87.9235 359.7429 0001953  72.2856 287.8489 13.18685464213874
ONEWEB-0327             
1 49196U 21083L   26046.29613643  .00000067  00000+0  13703-3 0  9994
2 49196  87.9222 359.6672 0001860  69.5338 290.5994 13.18684389213957
ONEWEB-0328             
1 49197U 21083M   26046.26107805  .00000216  00000+0  55687-3 0  9993
2 49197  87.9047 344.4407 0001963  80.3896 279.7455 13.13472503214898
ONEWEB-0331             
1 49198U 21083N   26045.83441047 -.00000104  00000+0 -29737-3 0  9990
2 49198  87.9233 359.7371 0002121  75.0165 285.1202 13.18684479213883
